start=new Date('2023-03-05T00:00:00.000Z').valueOf();
sats=[{"LAUNCH_DATE":"2023-02-02","APOAPSIS":"401.175","RA_OF_ASC_NODE":"204.8759","RCS_SIZE":"LARGE","ARG_OF_PERICENTER":"293.3828","MEAN_MOTION":"15.55739241","FILE":"3851350","INCLINATION":"42.9997","TLE_LINE2":"2 55486  42.9997 204.8759 0001724 293.3828 124.2271 15.55739241  1309","REV_AT_EPOCH":"130","CLASSIFICATION_TYPE":"U","MEAN_ELEMENT_THEORY":"SGP4","OBJECT_NAME":"STARLINK-5704","GP_ID":"227510819","COUNTRY_CODE":"US","SITE":"AFETR","ECCENTRICITY":"0.00017240","EPOCH":"2023-03-04T22:00:00.999936","BSTAR":"-0.01201800000000","ELEMENT_SET_NO":"999","MEAN_MOTION_DDOT":"0.0000000000000","OBJECT_ID":"2023-015AP","OBJECT_TYPE":"PAYLOAD","TIME_SYSTEM":"UTC","SEMIMAJOR_AXIS":"6778.142","CENTER_NAME":"EARTH","REF_FRAME":"TEME","DECAY_DATE":null,"PERIOD":"92.560","EPHEMERIS_TYPE":"0","MEAN_ANOMALY":"124.2271","NORAD_CAT_ID":"55486","TLE_LINE1":"1 55486U 23015AP  23063.91667824 -.00783034  00000-0 -12018-1 0  9996","PERIAPSIS":"398.838","MEAN_MOTION_DOT":"-0.00783034"},{"RCS_SIZE":"LARGE","ARG_OF_PERICENTER":"279.3458","MEAN_MOTION":"15.51542909","FILE":"3851350","RA_OF_ASC_NODE":"204.9531","LAUNCH_DATE":"2023-02-02","APOAPSIS":"413.345","GP_ID":"227511569","COUNTRY_CODE":"US","ECCENTRICITY":"0.00016530","SITE":"AFETR","EPOCH":"2023-03-04T22:00:00.999936","OBJECT_NAME":"STARLINK-5701","MEAN_ELEMENT_THEORY":"SGP4","INCLINATION":"42.9999","REV_AT_EPOCH":"130","TLE_LINE2":"2 55487  42.9999 204.9531 0001653 279.3458 107.0060 15.51542909  1309","CLASSIFICATION_TYPE":"U","SEMIMAJOR_AXIS":"6790.358","CENTER_NAME":"EARTH","REF_FRAME":"TEME","OBJECT_TYPE":"PAYLOAD","TIME_SYSTEM":"UTC","MEAN_MOTION_DDOT":"0.0000000000000","OBJECT_ID":"2023-015AQ","BSTAR":"-0.02207300000000","ELEMENT_SET_NO":"999","MEAN_MOTION_DOT":"-0.01219742","NORAD_CAT_ID":"55487","PERIAPSIS":"411.100","TLE_LINE1":"1 55487U 23015AQ  23063.91667824 -.01219742  00000-0 -22073-1 0  9990","PERIOD":"92.811","DECAY_DATE":null,"EPHEMERIS_TYPE":"0","MEAN_ANOMALY":"107.0060"},{"MEAN_ELEMENT_THEORY":"SGP4","INCLINATION":"42.9994","TLE_LINE2":"2 55488  42.9994 204.8878 0001608 280.8166 131.9616 15.52241522  1302","REV_AT_EPOCH":"130","CLASSIFICATION_TYPE":"U","GP_ID":"227511820","COUNTRY_CODE":"US","ECCENTRICITY":"0.00016080","SITE":"AFETR","EPOCH":"2023-03-04T22:00:00.999936","OBJECT_NAME":"STARLINK-5706","LAUNCH_DATE":"2023-02-02","APOAPSIS":"411.277","RCS_SIZE":"LARGE","ARG_OF_PERICENTER":"280.8166","FILE":"3851350","MEAN_MOTION":"15.52241522","RA_OF_ASC_NODE":"204.8878","DECAY_DATE":null,"PERIOD":"92.769","EPHEMERIS_TYPE":"0","MEAN_ANOMALY":"131.9616","MEAN_MOTION_DOT":"-0.01212166","NORAD_CAT_ID":"55488","PERIAPSIS":"409.093","TLE_LINE1":"1 55488U 23015AR  23063.91667824 -.01212166  00000-0 -21375-1 0  9998","MEAN_MOTION_DDOT":"0.0000000000000","OBJECT_ID":"2023-015AR","BSTAR":"-0.02137500000000","ELEMENT_SET_NO":"999","SEMIMAJOR_AXIS":"6788.320","CENTER_NAME":"EARTH","REF_FRAME":"TEME","OBJECT_TYPE":"PAYLOAD","TIME_SYSTEM":"UTC"},{"NORAD_CAT_ID":"55489","TLE_LINE1":"1 55489U 23015AS  23063.91667824 -.01218605  00000-0 -21814-1 0  9991","PERIAPSIS":"410.225","MEAN_MOTION_DOT":"-0.01218605","DECAY_DATE":null,"PERIOD":"92.793","EPHEMERIS_TYPE":"0","MEAN_ANOMALY":"116.9092","OBJECT_TYPE":"PAYLOAD","TIME_SYSTEM":"UTC","CENTER_NAME":"EARTH","SEMIMAJOR_AXIS":"6789.489","REF_FRAME":"TEME","BSTAR":"-0.02181400000000","ELEMENT_SET_NO":"999","MEAN_MOTION_DDOT":"0.0000000000000","OBJECT_ID":"2023-015AS","OBJECT_NAME":"STARLINK-5371","COUNTRY_CODE":"US","GP_ID":"227512557","EPOCH":"2023-03-04T22:00:00.999936","SITE":"AFETR","ECCENTRICITY":"0.00016630","INCLINATION":"42.9998","CLASSIFICATION_TYPE":"U","TLE_LINE2":"2 55489  42.9998 204.9252 0001663 280.7008 116.9092 15.51840782  1302","REV_AT_EPOCH":"130","MEAN_ELEMENT_THEORY":"SGP4","RA_OF_ASC_NODE":"204.9252","ARG_OF_PERICENTER":"280.7008","RCS_SIZE":"LARGE","FILE":"3851350","MEAN_MOTION":"15.51840782","LAUNCH_DATE":"2023-02-02","APOAPSIS":"412.483"},{"ELEMENT_SET_NO":"999","BSTAR":"-0.02142600000000","OBJECT_ID":"2023-015AT","MEAN_MOTION_DDOT":"0.0000000000000","TIME_SYSTEM":"UTC","OBJECT_TYPE":"PAYLOAD","REF_FRAME":"TEME","SEMIMAJOR_AXIS":"6787.904","CENTER_NAME":"EARTH","MEAN_ANOMALY":"136.1586","PERIOD":"92.761","DECAY_DATE":null,"EPHEMERIS_TYPE":"0","TLE_LINE1":"1 55490U 23015AT  23063.91667824 -.01220567  00000-0 -21426-1 0  9992","PERIAPSIS":"408.668","NORAD_CAT_ID":"55490","MEAN_MOTION_DOT":"-0.01220567","APOAPSIS":"410.870","LAUNCH_DATE":"2023-02-02","RA_OF_ASC_NODE":"204.8757","MEAN_MOTION":"15.52384203","FILE":"3851350","RCS_SIZE":"LARGE","ARG_OF_PERICENTER":"281.5043","REV_AT_EPOCH":"130","TLE_LINE2":"2 55490  43.0000 204.8757 0001622 281.5043 136.1586 15.52384203  1306","CLASSIFICATION_TYPE":"U","INCLINATION":"43.0000","MEAN_ELEMENT_THEORY":"SGP4","OBJECT_NAME":"STARLINK-5373","SITE":"AFETR","ECCENTRICITY":"0.00016220","EPOCH":"2023-03-04T22:00:00.999936","GP_ID":"227511319","COUNTRY_CODE":"US"},{"RA_OF_ASC_NODE":"204.9355","RCS_SIZE":"LARGE","ARG_OF_PERICENTER":"254.3291","FILE":"3851350","MEAN_MOTION":"15.71395969","LAUNCH_DATE":"2023-02-02","APOAPSIS":"356.825","OBJECT_NAME":"STARLINK-5364","GP_ID":"227512069","COUNTRY_CODE":"US","SITE":"AFETR","ECCENTRICITY":"0.00028470","EPOCH":"2023-03-04T19:06:40.526496","INCLINATION":"43.0007","TLE_LINE2":"2 55491  43.0007 204.9355 0002847 254.3291 105.7263 15.71395969  4952","REV_AT_EPOCH":"495","CLASSIFICATION_TYPE":"U","MEAN_ELEMENT_THEORY":"SGP4","OBJECT_TYPE":"PAYLOAD","TIME_SYSTEM":"UTC","SEMIMAJOR_AXIS":"6733.043","CENTER_NAME":"EARTH","REF_FRAME":"TEME","BSTAR":"0.00015942000000","ELEMENT_SET_NO":"999","MEAN_MOTION_DDOT":"0.0000000000000","OBJECT_ID":"2023-015AU","NORAD_CAT_ID":"55491","TLE_LINE1":"1 55491U 23015AU  23063.79630239  .00020542  00000-0  15942-3 0  9995","PERIAPSIS":"352.992","MEAN_MOTION_DOT":"0.00020542","DECAY_DATE":null,"EPHEMERIS_TYPE":"0","PERIOD":"91.638","MEAN_ANOMALY":"105.7263"},{"PERIOD":"92.772","DECAY_DATE":null,"EPHEMERIS_TYPE":"0","MEAN_ANOMALY":"129.3361","NORAD_CAT_ID":"55492","TLE_LINE1":"1 55492U 23015AV  23063.91667824 -.01219844  00000-0 -21567-1 0  9996","PERIAPSIS":"409.236","MEAN_MOTION_DOT":"-0.01219844","BSTAR":"-0.02156700000000","ELEMENT_SET_NO":"999","MEAN_MOTION_DDOT":"0.0000000000000","OBJECT_ID":"2023-015AV","OBJECT_TYPE":"PAYLOAD","TIME_SYSTEM":"UTC","SEMIMAJOR_AXIS":"6788.483","CENTER_NAME":"EARTH","REF_FRAME":"TEME","INCLINATION":"42.9996","REV_AT_EPOCH":"130","TLE_LINE2":"2 55492  42.9996 204.8932 0001638 281.2218 129.3361 15.52185702  1301","CLASSIFICATION_TYPE":"U","MEAN_ELEMENT_THEORY":"SGP4","OBJECT_NAME":"STARLINK-5013","GP_ID":"227512320","COUNTRY_CODE":"US","SITE":"AFETR","ECCENTRICITY":"0.00016380","EPOCH":"2023-03-04T22:00:00.999936","LAUNCH_DATE":"2023-02-02","APOAPSIS":"411.460","RA_OF_ASC_NODE":"204.8932","RCS_SIZE":"LARGE","ARG_OF_PERICENTER":"281.2218","FILE":"3851350","MEAN_MOTION":"15.52185702"},{"ELEMENT_SET_NO":"999","BSTAR":"-0.02132800000000","OBJECT_ID":"2023-015AW","MEAN_MOTION_DDOT":"0.0000000000000","TIME_SYSTEM":"UTC","OBJECT_TYPE":"PAYLOAD","REF_FRAME":"TEME","SEMIMAJOR_AXIS":"6788.115","CENTER_NAME":"EARTH","MEAN_ANOMALY":"134.8933","DECAY_DATE":null,"PERIOD":"92.765","EPHEMERIS_TYPE":"0","PERIAPSIS":"408.890","TLE_LINE1":"1 55493U 23015AW  23063.91667824 -.01212561  00000-0 -21328-1 0  9991","NORAD_CAT_ID":"55493","MEAN_MOTION_DOT":"-0.01212561","APOAPSIS":"411.070","LAUNCH_DATE":"2023-02-02","RA_OF_ASC_NODE":"204.8818","MEAN_MOTION":"15.52311941","FILE":"3851350","RCS_SIZE":"LARGE","ARG_OF_PERICENTER":"280.3687","REV_AT_EPOCH":"130","TLE_LINE2":"2 55493  42.9999 204.8818 0001606 280.3687 134.8933 15.52311941  1305","CLASSIFICATION_TYPE":"U","INCLINATION":"42.9999","MEAN_ELEMENT_THEORY":"SGP4","OBJECT_NAME":"STARLINK-5362","ECCENTRICITY":"0.00016060","SITE":"AFETR","EPOCH":"2023-03-04T22:00:00.999936","GP_ID":"227512058","COUNTRY_CODE":"US"},{"DECAY_DATE":null,"EPHEMERIS_TYPE":"0","PERIOD":"92.756","MEAN_ANOMALY":"138.7260","MEAN_MOTION_DOT":"-0.01212646","NORAD_CAT_ID":"55494","TLE_LINE1":"1 55494U 23015AX  23063.91667824 -.01212646  00000-0 -21219-1 0  9995","PERIAPSIS":"408.479","MEAN_MOTION_DDOT":"0.0000000000000","OBJECT_ID":"2023-015AX","BSTAR":"-0.02121900000000","ELEMENT_SET_NO":"999","SEMIMAJOR_AXIS":"6787.698","CENTER_NAME":"EARTH","REF_FRAME":"TEME","OBJECT_TYPE":"PAYLOAD","TIME_SYSTEM":"UTC","MEAN_ELEMENT_THEORY":"SGP4","INCLINATION":"42.9999","REV_AT_EPOCH":"130","TLE_LINE2":"2 55494  42.9999 204.8692 0001596 281.5444 138.7260 15.52455025  1306","CLASSIFICATION_TYPE":"U","GP_ID":"227510820","COUNTRY_CODE":"US","ECCENTRICITY":"0.00015960","SITE":"AFETR","EPOCH":"2023-03-04T22:00:00.999936","OBJECT_NAME":"STARLINK-5344","LAUNCH_DATE":"2023-02-02","APOAPSIS":"410.646","RCS_SIZE":"LARGE","ARG_OF_PERICENTER":"281.5444","FILE":"3851350","MEAN_MOTION":"15.52455025","RA_OF_ASC_NODE":"204.8692"},{"ARG_OF_PERICENTER":"260.2868","RCS_SIZE":"LARGE","FILE":"3851350","MEAN_MOTION":"15.71381261","RA_OF_ASC_NODE":"204.9643","LAUNCH_DATE":"2023-02-02","APOAPSIS":"357.371","COUNTRY_CODE":"US","GP_ID":"227511570","EPOCH":"2023-03-04T19:09:56.689056","SITE":"AFETR","ECCENTRICITY":"0.00035950","OBJECT_NAME":"STARLINK-5100","MEAN_ELEMENT_THEORY":"SGP4","INCLINATION":"43.0016","CLASSIFICATION_TYPE":"U","REV_AT_EPOCH":"495","TLE_LINE2":"2 55495  43.0016 204.9643 0003595 260.2868  99.7594 15.71381261  4952","CENTER_NAME":"EARTH","SEMIMAJOR_AXIS":"6733.085","REF_FRAME":"TEME","OBJECT_TYPE":"PAYLOAD","TIME_SYSTEM":"UTC","MEAN_MOTION_DDOT":"0.0000000000000","OBJECT_ID":"2023-015AY","BSTAR":"0.00044924000000","ELEMENT_SET_NO":"999","MEAN_MOTION_DOT":"0.00058954","NORAD_CAT_ID":"55495","PERIAPSIS":"352.530","TLE_LINE1":"1 55495U 23015AY  23063.79857279  .00058954  00000-0  44924-3 0  9994","DECAY_DATE":null,"PERIOD":"91.639","EPHEMERIS_TYPE":"0","MEAN_ANOMALY":"99.7594"}];
